EYESAT A (AO-27)        
1 22825U 93061C   26190.16568541  .00000044  00000+0  33846-4 0  9997
2 22825  98.6870 257.5702 0009081  42.3993 317.7889 14.30948062710148
ITAMSAT (IO-26)         
1 22826U 93061D   26190.13853778  .00000039  00000+0  31711-4 0  9997
2 22826  98.6818 257.4628 0009314  26.5022 333.6635 14.31375523710450
RADIO ROSTO (RS15)      
1 23439U 94085A   26190.19956448 -.00000037  00000+0  15602-3 0  9998
2 23439  64.8162 267.6172 0156696 359.8125   0.2717 11.27583504298380
JAS-2 (FO-29)           
1 24278U 96046B   26190.04746765  .00000001  00000+0  35079-4 0  9993
2 24278  98.5224  35.9232 0350601  39.8653 322.7685 13.53275148476120
FORTE                   
1 24920U 97047A   26189.81004418  .00000116  00000+0  69990-4 0  9990
2 24920  69.9546 325.1792 0024488 251.2143 108.6323 14.27953747501773
TECHSAT 1B (GO-32)      
1 25397U 98043D   26189.90993157  .00000035  00000+0  35510-4 0  9994
2 25397  99.0079 183.2175 0002015 124.8391 235.2977 14.24432499454421
ISS (ZARYA)             
1 25544U 98067A   26190.12129410  .00005585  00000+0  10961-3 0  9990
2 25544  51.6303 191.5347 0006670 273.7232  86.2993 15.48953098575157
IMAGE                   
1 26113U 00017A   26187.24790595 -.00000011  00000+0  00000+0 0  9997
2 26113  94.2437 315.6222 7418847 285.6487   9.6557  1.68666489161828
CLUSTER II-FM7 (SAMBA)  
1 26410U 00041A   26190.44939577  .00010356  00000+0  00000+0 0  9997
2 26410 149.8605  54.9301 9081562 272.3489 359.6364  0.44874124 20413
CLUSTER II-FM8 (TANGO)  
1 26464U 00045B   26188.69922144  .00008170  00000+0  00000+0 0  9997
2 26464 150.0768  55.7803 9084327 273.0277   2.3481  0.44419476 20403
ODIN                    
1 26702U 01007A   26190.06702813  .00259510  00000+0  10280-2 0  9994
2 26702  97.3749 232.5556 0005044 142.3922 217.7703 15.86075988392853
OMNI-M1                 
1 26857U 01026A   26183.00645506  .00000007  00000+0  00000+0 0  9998
2 26857  44.8270 241.8483 0013799  56.1769 304.0224  3.92402003206150
PCSAT (NO-44)           
1 26931U 01043C   26189.46210552  .00000066  00000+0  55648-4 0  9993
2 26931  67.0487 189.2445 0005977 266.0895  93.9524 14.31963214293495
PROBA-1                 
1 26958U 01049B   26190.30573510  .00002518  00000+0  16426-3 0  9993
2 26958  97.9603 199.6108 0055955  49.0852 311.5201 15.07597828346959
SAUDISAT 1C (SO-50)     
1 27607U 02058C   26190.07047632  .00000528  00000+0  80074-4 0  9991
2 27607  64.5518  61.2774 0074702 258.4036 100.8678 14.83090961267701
CORIOLIS                
1 27640U 03001A   26189.97084571  .00000063  00000+0  50119-4 0  9998
2 27640  98.7131 196.5232 0014681 146.2477 213.9637 14.19950561217315
CUTE-1 (CO-55)          
1 27844U 03031E   26189.95445865  .00000197  00000+0  10410-3 0  9999
2 27844  98.6739 198.2397 0010684 118.8005 241.4249 14.24348882194778
CUBESAT XI-IV (CO-57)   
1 27848U 03031J   26189.46187375  .00000184  00000+0  99678-4 0  9998
2 27848  98.6772 197.4488 0010258 137.0463 223.1519 14.23632050194408
MOZHAETS 4 (RS22)       
1 27939U 03042A   26190.36073010  .00000207  00000+0  40196-4 0  9999
2 27939  98.3481  15.3468 0010795 192.0332 287.3631 14.73506027218819
